[{"OBJECT_NAME":"CELESTIS-17 & SHERPA-FX1","OBJECT_ID":"2021-006CB","EPOCH":"2026-03-09T15:26:05.078112","MEAN_MOTION":15.30994801,"ECCENTRICITY":0.000663,"INCLINATION":97.2397,"RA_OF_ASC_NODE":112.1052,"ARG_OF_PERICENTER":178.1385,"MEAN_ANOMALY":181.9882,"EPHEMERIS_TYPE":0,"CLASSIFICATION_TYPE":"U","NORAD_CAT_ID":47486,"ELEMENT_SET_NO":999,"REV_AT_EPOCH":28406,"BSTAR":0.00024301,"MEAN_MOTION_DOT":7.207e-5,"MEAN_MOTION_DDOT":0},{"OBJECT_NAME":"STARLINK-32192","OBJECT_ID":"2024-133R","EPOCH":"2026-03-09T22:29:05.688960","MEAN_MOTION":15.3018994,"ECCENTRICITY":0.00012225,"INCLINATION":53.1596,"RA_OF_ASC_NODE":295.5274,"ARG_OF_PERICENTER":95.0078,"MEAN_ANOMALY":265.1062,"EPHEMERIS_TYPE":0,"CLASSIFICATION_TYPE":"U","NORAD_CAT_ID":60316,"ELEMENT_SET_NO":999,"REV_AT_EPOCH":9177,"BSTAR":2.3043628e-5,"MEAN_MOTION_DOT":3.23e-6,"MEAN_MOTION_DDOT":0}]
